OBJECT_NAME,OBJECT_ID,EPOCH,MEAN_MOTION,ECCENTRICITY,INCLINATION,RA_OF_ASC_NODE,ARG_OF_PERICENTER,MEAN_ANOMALY,EPHEMERIS_TYPE,CLASSIFICATION_TYPE,NORAD_CAT_ID,ELEMENT_SET_NO,REV_AT_EPOCH,BSTAR,MEAN_MOTION_DOT,MEAN_MOTION_DDOT
KUZGTU 1 (RS47S),2023-091AV,2026-07-04T04:03:04.470336,15.30261627,.00112391,97.5051,249.8252,44.2940,315.9198,0,U,57217,999,16697,.54336585E-3,.15875E-3,0
SONATE-2,2024-043Q,2026-07-03T08:58:48.555840,15.59976737,.00071755,97.5550,335.7782,143.8027,216.3716,0,U,59112,999,13041,.51386896E-3,.41547E-3,0
MESAT1,2024-125G,2026-07-04T01:26:31.629120,15.65163693,.00108725,97.2260,42.9476,147.3419,212.8516,0,U,60209,999,11220,.84409772E-3,.84122E-3,0
OOV-CUBE (TUBSAT-30),2024-128F,2026-07-04T05:19:58.322784,15.02838616,.00424879,61.9937,166.1691,137.5173,222.9219,0,U,60240,999,10867,.20571144E-3,.2609E-4,0
COLIBRI-S (RS67S),2024-199M,2026-07-04T04:35:26.328480,15.48448465,.00075715,97.2965,59.2055,202.4087,157.6834,0,U,61746,999,14004,.60404939E-3,.32089E-3,0
HORS 3 (RS81S),2024-199U,2026-07-04T03:16:45.463584,15.56191642,.00055941,97.2946,61.3263,192.3091,167.8028,0,U,61753,999,14019,.73296481E-3,.51514E-3,0
HORS 4 (RS82S),2024-199V,2026-07-04T04:07:47.552160,15.61365896,.00056201,97.2886,62.6789,181.1012,179.0234,0,U,61754,999,14029,.86449438E-3,.74044E-3,0
SIT-2086,2024-199AF,2026-07-04T03:15:07.125696,15.54298700,.00069185,97.2901,61.7430,178.8777,181.2493,0,U,61764,999,13706,.78198325E-3,.51302E-3,0
HYPERVIEW 1G (RS66S),2024-199AP,2026-07-04T04:21:26.189568,15.81194057,.00074513,97.2821,65.8188,170.1238,190.0179,0,U,61772,999,13735,.12608129E-2,.253182E-2,0
ALTAIR (RS65S),2024-199AW,2026-07-04T04:00:59.612832,15.37353979,.00110123,97.3002,54.4075,239.9310,120.0844,0,U,61779,999,13972,.31981358E-3,.11654E-3,0
ASRTU-1 (AO-123),2024-199AY,2026-07-04T04:05:34.913472,15.35922419,.00120514,97.2973,53.6886,243.8268,116.1737,0,U,61781,999,13653,.28694224E-3,.9978E-4,0
SAMSAT-IONOSPHERE (RS75S),2024-199BB,2026-07-04T03:21:44.054208,15.59175395,.00077563,97.2911,61.4415,198.2307,161.8672,0,U,61784,999,14020,.81564712E-3,.64229E-3,0
RTU MIREA 1 (RS51S),2024-199BC,2026-07-04T04:32:06.558720,15.63057795,.00078222,97.2897,62.4155,191.5856,168.5224,0,U,61785,999,13712,.10032707E-2,.92022E-3,0
TEVEL2-4,2025-052D,2026-07-04T04:44:32.552736,15.35231929,.00044603,97.3880,81.6219,72.1659,288.0071,0,U,63213,999,7272,.77344373E-3,.26442E-3,0
TEVEL2-5,2025-052E,2026-07-03T23:01:24.056544,15.35036262,.00044711,97.3878,81.3261,74.0605,286.1131,0,U,63214,999,7268,.66991312E-3,.22739E-3,0
TEVEL2-6,2025-052F,2026-07-04T04:01:19.329312,15.35012398,.0004299,97.3882,81.5194,74.6482,285.5237,0,U,63215,999,7271,.73793881E-3,.25044E-3,0
TEVEL2-1,2025-052H,2026-07-02T10:36:17.123040,15.34387675,.000494,97.3860,79.3967,84.7539,275.4267,0,U,63217,999,7243,.64322E-3,.21382E-3,0
TEVEL2-3,2025-052J,2026-07-03T16:11:55.840704,15.34492636,.00046754,97.3858,80.6542,83.6439,276.5336,0,U,63218,999,7262,.62441707E-3,.20822E-3,0
TEVEL2-2,2025-052K,2026-07-04T03:18:10.627200,15.34464728,.00048706,97.3853,81.0960,81.8522,278.3273,0,U,63219,999,7269,.73554564E-3,.24532E-3,0
OTP-2,2025-052AB,2026-07-04T03:59:09.655872,15.24220509,.00082965,97.3849,77.3432,100.4921,259.7252,0,U,63235,999,7245,.40848086E-3,.9902E-4,0
TEVEL2-9,2025-052AD,2026-07-03T14:45:18.109152,15.32416047,.0008273,97.3920,79.9121,87.9946,272.2243,0,U,63237,999,7254,.61259096E-3,.19142E-3,0
TEVEL2-7,2025-052AE,2026-07-04T04:21:14.142816,15.32130215,.00083415,97.3919,80.3865,86.6384,273.5812,0,U,63238,999,7262,.72746702E-3,.22554E-3,0
TEVEL2-8,2025-052AF,2026-07-04T02:59:18.438144,15.32112590,.00083787,97.3915,80.3061,87.3406,272.8795,0,U,63239,999,7261,.72172718E-3,.22362E-3,0
INNOSAT 16 (RS92S7),2025-155C,2026-07-04T04:29:44.104128,15.25642681,.00122176,97.4577,152.2632,121.3125,238.9311,0,U,64878,999,8326,.29255436E-3,.7385E-4,0
GEOSCAN 6 (RS92S6),2025-155D,2026-07-04T04:22:59.596608,15.30479186,.00098653,97.4569,153.8042,112.6922,247.5363,0,U,64879,999,8336,.47598017E-3,.13981E-3,0
GEOSCAN 1 (RS92S1),2025-155E,2026-07-04T04:16:44.119488,15.31110944,.00098218,97.4565,153.9629,112.7734,247.4545,0,U,64880,999,8337,.49162531E-3,.14731E-3,0
239ALFEROV (RS61S),2025-155F,2026-07-04T04:31:13.845216,15.33414732,.00094922,97.4565,154.5928,111.7910,248.4343,0,U,64881,999,8341,.61739472E-3,.19915E-3,0
GEOSCAN 2 (RS92S2),2025-155Q,2026-07-04T04:03:23.345280,15.31369149,.00092473,97.4564,154.1127,102.5276,257.7000,0,U,64890,999,8338,.47406548E-3,.14313E-3,0
GEOSCAN 5 (RS92S5),2025-155R,2026-07-04T04:10:23.404800,15.33727590,.00084561,97.4557,154.7222,115.5334,244.6784,0,U,64891,999,8342,.59573323E-3,.19397E-3,0
GEOSCAN 4 (RS92S4),2025-155S,2026-07-04T03:45:06.734016,15.33889378,.00084613,97.4561,154.7579,115.5094,244.7025,0,U,64892,999,8342,.59087678E-3,.19337E-3,0
