KUZGTU 1 (RS47S)        
1 57217U 23091AV  26185.16880174  .00015875  00000+0  54337-3 0  9994
2 57217  97.5051 249.8252 0011239  44.2940 315.9198 15.30261627166970
SONATE-2                
1 59112U 24043Q   26184.37417310  .00041547  00000+0  51387-3 0  9995
2 59112  97.5550 335.7782 0007175 143.8027 216.3716 15.59976737130415
MESAT1                  
1 60209U 24125G   26185.06008830  .00084122  00000+0  84410-3 0  9994
2 60209  97.2260  42.9476 0010872 147.3419 212.8516 15.65163693112200
OOV-CUBE (TUBSAT-30)    
1 60240U 24128F   26185.22220281  .00002609  00000+0  20571-3 0  9994
2 60240  61.9937 166.1691 0042487 137.5173 222.9219 15.02838616108670
COLIBRI-S (RS67S)       
1 61746U 24199M   26185.19127695  .00032089  00000+0  60405-3 0  9990
2 61746  97.2965  59.2055 0007571 202.4087 157.6834 15.48448465140045
HORS 3 (RS81S)          
1 61753U 24199U   26185.13663731  .00051514  00000+0  73296-3 0  9994
2 61753  97.2946  61.3263 0005594 192.3091 167.8028 15.56191642140197
HORS 4 (RS82S)          
1 61754U 24199V   26185.17207815  .00074044  00000+0  86449-3 0  9993
2 61754  97.2886  62.6789 0005620 181.1012 179.0234 15.61365896140292
SIT-2086                
1 61764U 24199AF  26185.13549914  .00051302  00000+0  78198-3 0  9993
2 61764  97.2901  61.7430 0006918 178.8777 181.2493 15.54298700137060
HYPERVIEW 1G (RS66S)    
1 61772U 24199AP  26185.18155312  .00253182  00000+0  12608-2 0  9995
2 61772  97.2821  65.8188 0007451 170.1238 190.0179 15.81194057137356
ALTAIR (RS65S)          
1 61779U 24199AW  26185.16735663  .00011654  00000+0  31981-3 0  9995
2 61779  97.3002  54.4075 0011012 239.9310 120.0844 15.37353979139723
ASRTU-1 (AO-123)        
1 61781U 24199AY  26185.17054298  .00009978  00000+0  28694-3 0  9990
2 61781  97.2973  53.6886 0012051 243.8268 116.1737 15.35922419136535
SAMSAT-IONOSPHERE (RS7*)
1 61784U 24199BB  26185.14009322  .00064229  00000+0  81565-3 0  9994
2 61784  97.2911  61.4415 0007756 198.2307 161.8672 15.59175395140201
RTU MIREA 1 (RS51S)     
1 61785U 24199BC  26185.18896480  .00092022  00000+0  10033-2 0  9991
2 61785  97.2897  62.4155 0007822 191.5856 168.5224 15.63057795137128
TEVEL2-4                
1 63213U 25052D   26185.19759899  .00026442  00000+0  77344-3 0  9993
2 63213  97.3880  81.6219 0004460  72.1659 288.0071 15.35231929 72727
TEVEL2-5                
1 63214U 25052E   26184.95930621  .00022739  00000+0  66991-3 0  9992
2 63214  97.3878  81.3261 0004471  74.0605 286.1131 15.35036262 72687
TEVEL2-6                
1 63215U 25052F   26185.16758483  .00025044  00000+0  73794-3 0  9992
2 63215  97.3882  81.5194 0004299  74.6482 285.5237 15.35012398 72715
TEVEL2-1                
1 63217U 25052H   26183.44186485  .00021382  00000+0  64322-3 0  9998
2 63217  97.3860  79.3967 0004940  84.7539 275.4267 15.34387675 72436
TEVEL2-3                
1 63218U 25052J   26184.67495186  .00020822  00000+0  62442-3 0  9995
2 63218  97.3858  80.6542 0004675  83.6439 276.5336 15.34492636 72624
TEVEL2-2                
1 63219U 25052K   26185.13762300  .00024532  00000+0  73555-3 0  9992
2 63219  97.3853  81.0960 0004870  81.8522 278.3273 15.34464728 72697
OTP-2                   
1 63235U 25052AB  26185.16608398  .00009902  00000+0  40848-3 0  9992
2 63235  97.3849  77.3432 0008296 100.4921 259.7252 15.24220509 72459
TEVEL2-9                
1 63237U 25052AD  26184.61479293  .00019142  00000+0  61259-3 0  9999
2 63237  97.3920  79.9121 0008273  87.9946 272.2243 15.32416047 72548
TEVEL2-7                
1 63238U 25052AE  26185.18141369  .00022554  00000+0  72747-3 0  9998
2 63238  97.3919  80.3865 0008341  86.6384 273.5812 15.32130215 72621
TEVEL2-8                
1 63239U 25052AF  26185.12451896  .00022362  00000+0  72173-3 0  9992
2 63239  97.3915  80.3061 0008378  87.3406 272.8795 15.32112590 72616
INNOSAT 16 (RS92S7)     
1 64878U 25155C   26185.18731602  .00007385  00000+0  29255-3 0  9999
2 64878  97.4577 152.2632 0012217 121.3125 238.9311 15.25642681 83269
GEOSCAN 6 (RS92S6)      
1 64879U 25155D   26185.18263422  .00013981  00000+0  47598-3 0  9999
2 64879  97.4569 153.8042 0009865 112.6922 247.5363 15.30479186 83364
GEOSCAN 1 (RS92S1)      
1 64880U 25155E   26185.17828842  .00014731  00000+0  49163-3 0  9997
2 64880  97.4565 153.9629 0009821 112.7734 247.4545 15.31110944 83375
239ALFEROV (RS61S)      
1 64881U 25155F   26185.18835469  .00019915  00000+0  61739-3 0  9994
2 64881  97.4565 154.5928 0009492 111.7910 248.4343 15.33414732 83410
GEOSCAN 2 (RS92S2)      
1 64890U 25155Q   26185.16902020  .00014313  00000+0  47407-3 0  9993
2 64890  97.4564 154.1127 0009247 102.5276 257.7000 15.31369149 83385
GEOSCAN 5 (RS92S5)      
1 64891U 25155R   26185.17388200  .00019397  00000+0  59573-3 0  9997
2 64891  97.4557 154.7222 0008456 115.5334 244.6784 15.33727590 83429
GEOSCAN 4 (RS92S4)      
1 64892U 25155S   26185.15632794  .00019337  00000+0  59088-3 0  9991
2 64892  97.4561 154.7579 0008461 115.5094 244.7025 15.33889378 83421
